{"type": "FeatureCollection", "features": [ {"type": "Feature", "properties": {"norad_id": 33625, "name": "FENGYUN 1C DEB", "group": "fengyun-1c-debris", "lat": -81.35509326087947, "lon": -173.11969662040235, "alt_km": 778.7134636029741, "timestamp": "2025-12-08T13:49:32.079568+00:00", "meta": {"OBJECT_NAME": "FENGYUN 1C DEB", "OBJECT_ID": "1999-025DDJ", "EPOCH": "2025-12-01T01:24:31.444992", "MEAN_MOTION": 14.60592393, "ECCENTRICITY": 0.02269611, "INCLINATION": 98.6203, "RA_OF_ASC_NODE": 85.2252, "ARG_OF_PERICENTER": 171.2387, "MEAN_ANOMALY": 189.288, "EPHEMERIS_TYPE": 0, "CLASSIFICATION_TYPE": "U", "NORAD_CAT_ID": 33625, "ELEMENT_SET_NO": 999, "REV_AT_EPOCH": 61220, "BSTAR": 0.0017865562, "MEAN_MOTION_DOT": 0.00012473, "MEAN_MOTION_DDOT": 0}, "tle": {"line1": "1 33625U 99025DDJ 25335.05869728  .00012473  00000+0  17866-2 0  9993", "line2": "2 33625  98.6203  85.2252 0226961 171.2387 189.2880 14.60592393612207"}}, "geometry": {"type": "Point", "coordinates": [-173.11969662040235, -81.35509326087947]}}, {"type": "Feature", "properties": {"norad_id": 33630, "name": "FENGYUN 1C DEB", "group": "fengyun-1c-debris", "lat": -12.609237013375088, "lon": 90.83671685796315, "alt_km": 840.7442221228875, "timestamp": "2025-12-08T13:49:32.079581+00:00", "meta": {"OBJECT_NAME": "FENGYUN 1C DEB", "OBJECT_ID": "1999-025DDP", "EPOCH": "2025-12-05T13:03:03.290976", "MEAN_MOTION": 14.17702204, "ECCENTRICITY": 0.01355763, "INCLINATION": 98.6169, "RA_OF_ASC_NODE": 85.9506, "ARG_OF_PERICENTER": 88.759, "MEAN_ANOMALY": 272.9114, "EPHEMERIS_TYPE": 0, "CLASSIFICATION_TYPE": "U", "NORAD_CAT_ID": 33630, "ELEMENT_SET_NO": 999, "REV_AT_EPOCH": 64309, "BSTAR": 0.00069962399, "MEAN_MOTION_DOT": 1.519e-05, "MEAN_MOTION_DDOT": 0}, "tle": {"line1": "1 33630U 99025DDP 25339.54378809  .00001519  00000+0  69962-3 0  9996", "line2": "2 33630  98.6169  85.9506 0135576  88.7590 272.9114 14.17702204643099"}}, "geometry": {"type": "Point", "coordinates": [90.83671685796315, -12.609237013375088]}}, {"type": "Feature", "properties": {"norad_id": 33633, "name": "FENGYUN 1C DEB", "group": "fengyun-1c-debris", "lat": 5.914375041838218, "lon": 75.81192526546994, "alt_km": 885.0414876010709, "timestamp": "2025-12-08T13:49:32.079592+00:00", "meta": {"OBJECT_NAME": "FENGYUN 1C DEB", "OBJECT_ID": "1999-025DDS", "EPOCH": "2025-12-04T05:02:36.311136", "MEAN_MOTION": 14.19195748, "ECCENTRICITY": 0.0084138, "INCLINATION": 99.0589, "RA_OF_ASC_NODE": 72.2967, "ARG_OF_PERICENTER": 174.4266, "MEAN_ANOMALY": 217.7166, "EPHEMERIS_TYPE": 0, "CLASSIFICATION_TYPE": "U", "NORAD_CAT_ID": 33633, "ELEMENT_SET_NO": 999, "REV_AT_EPOCH": 90590, "BSTAR": 0.0055559, "MEAN_MOTION_DOT": 0.00012029, "MEAN_MOTION_DDOT": 0}, "tle": {"line1": "1 33633U 99025DDS 25338.21014249  .00012029  00000+0  55559-2 0  9991", "line2": "2 33633  99.0589  72.2967 0084138 174.4266 217.7166 14.19195748905909"}}, "geometry": {"type": "Point", "coordinates": [75.81192526546994, 5.914375041838218]}}, {"type": "Feature", "properties": {"norad_id": 33637, "name": "FENGYUN 1C DEB", "group": "fengyun-1c-debris", "lat": -13.626857911972841, "lon": 29.689687105346977, "alt_km": 833.3008200161066, "timestamp": "2025-12-08T13:49:32.079602+00:00", "meta": {"OBJECT_NAME": "FENGYUN 1C DEB", "OBJECT_ID": "1999-025DDW", "EPOCH": "2025-12-02T20:49:29.953920", "MEAN_MOTION": 14.36621291, "ECCENTRICITY": 0.00830408, "INCLINATION": 98.4948, "RA_OF_ASC_NODE": 21.982, "ARG_OF_PERICENTER": 180.571, "MEAN_ANOMALY": 179.5395, "EPHEMERIS_TYPE": 0, "CLASSIFICATION_TYPE": "U", "NORAD_CAT_ID": 33637, "ELEMENT_SET_NO": 999, "REV_AT_EPOCH": 64696, "BSTAR": 0.0016160218, "MEAN_MOTION_DOT": 4.904e-05, "MEAN_MOTION_DDOT": 0}, "tle": {"line1": "1 33637U 99025DDW 25336.86770780  .00004904  00000+0  16160-2 0  9991", "line2": "2 33637  98.4948  21.9820 0083040 180.5710 179.5395 14.36621291646960"}}, "geometry": {"type": "Point", "coordinates": [29.689687105346977, -13.626857911972841]}}, {"type": "Feature", "properties": {"norad_id": 33638, "name": "FENGYUN 1C DEB", "group": "fengyun-1c-debris", "lat": 49.44314682099727, "lon": -136.25603645866767, "alt_km": 1109.3992327628603, "timestamp": "2025-12-08T13:49:32.079612+00:00", "meta": {"OBJECT_NAME": "FENGYUN 1C DEB", "OBJECT_ID": "1999-025DDX", "EPOCH": "2025-12-06T22:59:54.556512", "MEAN_MOTION": 13.6928665, "ECCENTRICITY": 0.02653124, "INCLINATION": 98.4647, "RA_OF_ASC_NODE": 232.3409, "ARG_OF_PERICENTER": 288.5007, "MEAN_ANOMALY": 68.7482, "EPHEMERIS_TYPE": 0, "CLASSIFICATION_TYPE": "U", "NORAD_CAT_ID": 33638, "ELEMENT_SET_NO": 999, "REV_AT_EPOCH": 60836, "BSTAR": 0.0023450571, "MEAN_MOTION_DOT": 2.567e-05, "MEAN_MOTION_DDOT": 0}, "tle": {"line1": "1 33638U 99025DDX 25340.95827033  .00002567  00000+0  23451-2 0  9995", "line2": "2 33638  98.4647 232.3409 0265312 288.5007  68.7482 13.69286650608369"}}, "geometry": {"type": "Point", "coordinates": [-136.25603645866767, 49.44314682099727]}}, {"type": "Feature", "properties": {"norad_id": 33639, "name": "FENGYUN 1C DEB", "group": "fengyun-1c-debris", "lat": 4.999764855208625, "lon": 72.71117233511042, "alt_km": 743.7730442590873, "timestamp": "2025-12-08T13:49:32.079623+00:00", "meta": {"OBJECT_NAME": "FENGYUN 1C DEB", "OBJECT_ID": "1999-025DDY", "EPOCH": "2025-12-03T23:45:48.189312", "MEAN_MOTION": 14.40248408, "ECCENTRICITY": 0.00493059, "INCLINATION": 98.7136, "RA_OF_ASC_NODE": 68.813, "ARG_OF_PERICENTER": 315.1865, "MEAN_ANOMALY": 44.5345, "EPHEMERIS_TYPE": 0, "CLASSIFICATION_TYPE": "U", "NORAD_CAT_ID": 33639, "ELEMENT_SET_NO": 999, "REV_AT_EPOCH": 60456, "BSTAR": 0.0043899516, "MEAN_MOTION_DOT": 0.00014079, "MEAN_MOTION_DDOT": 0}, "tle": {"line1": "1 33639U 99025DDY 25337.99014108  .00014079  00000+0  43900-2 0  9999", "line2": "2 33639  98.7136  68.8130 0049305 315.1865  44.5345 14.40248408604567"}}, "geometry": {"type": "Point", "coordinates": [72.71117233511042, 4.999764855208625]}}, {"type": "Feature", "properties": {"norad_id": 33640, "name": "FENGYUN 1C DEB", "group": "fengyun-1c-debris", "lat": 68.89143776049573, "lon": 128.92998162906673, "alt_km": 702.6479625075744, "timestamp": "2025-12-08T13:49:32.079633+00:00", "meta": {"OBJECT_NAME": "FENGYUN 1C DEB", "OBJECT_ID": "1999-025DDZ", "EPOCH": "2025-12-07T19:02:56.918112", "MEAN_MOTION": 14.458694, "ECCENTRICITY": 0.00904679, "INCLINATION": 98.8406, "RA_OF_ASC_NODE": 284.3391, "ARG_OF_PERICENTER": 174.4583, "MEAN_ANOMALY": 185.763, "EPHEMERIS_TYPE": 0, "CLASSIFICATION_TYPE": "U", "NORAD_CAT_ID": 33640, "ELEMENT_SET_NO": 999, "REV_AT_EPOCH": 92271, "BSTAR": 0.00085213272, "MEAN_MOTION_DOT": 3.134e-05, "MEAN_MOTION_DDOT": 0}, "tle": {"line1": "1 33640U 99025DDZ 25341.79371433  .00003134  00000+0  85213-3 0  9995", "line2": "2 33640  98.8406 284.3391 0090467 174.4583 185.7630 14.45869400922713"}}, "geometry": {"type": "Point", "coordinates": [128.92998162906673, 68.89143776049573]}}, {"type": "Feature", "properties": {"norad_id": 33648, "name": "FENGYUN 1C DEB", "group": "fengyun-1c-debris", "lat": -7.109566261109632, "lon": 160.283750713745, "alt_km": 807.4752958072067, "timestamp": "2025-12-08T13:49:32.079643+00:00", "meta": {"OBJECT_NAME": "FENGYUN 1C DEB", "OBJECT_ID": "1999-025DEH", "EPOCH": "2025-12-07T06:19:28.985088", "MEAN_MOTION": 14.11771624, "ECCENTRICITY": 0.00686156, "INCLINATION": 98.7191, "RA_OF_ASC_NODE": 340.1048, "ARG_OF_PERICENTER": 189.7448, "MEAN_ANOMALY": 170.2398, "EPHEMERIS_TYPE": 0, "CLASSIFICATION_TYPE": "U", "NORAD_CAT_ID": 33648, "ELEMENT_SET_NO": 999, "REV_AT_EPOCH": 64299, "BSTAR": 0.00018339331, "MEAN_MOTION_DOT": 2.99e-06, "MEAN_MOTION_DDOT": 0}, "tle": {"line1": "1 33648U 99025DEH 25341.26352992  .00000299  00000+0  18339-3 0  9998", "line2": "2 33648  98.7191 340.1048 0068615 189.7448 170.2398 14.11771624642992"}}, "geometry": {"type": "Point", "coordinates": [160.283750713745, -7.109566261109632]}}, {"type": "Feature", "properties": {"norad_id": 33650, "name": "FENGYUN 1C DEB", "group": "fengyun-1c-debris", "lat": -54.6091175979326, "lon": 160.66526944212367, "alt_km": 1028.823374579507, "timestamp": "2025-12-08T13:49:32.079653+00:00", "meta": {"OBJECT_NAME": "FENGYUN 1C DEB", "OBJECT_ID": "1999-025DEK", "EPOCH": "2025-12-08T05:27:12.984768", "MEAN_MOTION": 13.89181804, "ECCENTRICITY": 0.01501243, "INCLINATION": 98.9884, "RA_OF_ASC_NODE": 147.4557, "ARG_OF_PERICENTER": 91.2923, "MEAN_ANOMALY": 270.5438, "EPHEMERIS_TYPE": 0, "CLASSIFICATION_TYPE": "U", "NORAD_CAT_ID": 33650, "ELEMENT_SET_NO": 999, "REV_AT_EPOCH": 68746, "BSTAR": 0.0012694502, "MEAN_MOTION_DOT": 1.648e-05, "MEAN_MOTION_DDOT": 0}, "tle": {"line1": "1 33650U 99025DEK 25342.22723362  .00001648  00000+0  12695-2 0  9998", "line2": "2 33650  98.9884 147.4557 0150124  91.2923 270.5438 13.89181804687460"}}, "geometry": {"type": "Point", "coordinates": [160.66526944212367, -54.6091175979326]}}, {"type": "Feature", "properties": {"norad_id": 33651, "name": "FENGYUN 1C DEB", "group": "fengyun-1c-debris", "lat": 68.9531482893753, "lon": -128.42785901552062, "alt_km": 755.1142842629815, "timestamp": "2025-12-08T13:49:32.079664+00:00", "meta": {"OBJECT_NAME": "FENGYUN 1C DEB", "OBJECT_ID": "1999-025DEL", "EPOCH": "2025-12-04T09:34:25.167360", "MEAN_MOTION": 14.2034714, "ECCENTRICITY": 0.0118053, "INCLINATION": 98.6575, "RA_OF_ASC_NODE": 24.1579, "ARG_OF_PERICENTER": 77.9387, "MEAN_ANOMALY": 283.4991, "EPHEMERIS_TYPE": 0, "CLASSIFICATION_TYPE": "U", "NORAD_CAT_ID": 33651, "ELEMENT_SET_NO": 999, "REV_AT_EPOCH": 64153, "BSTAR": 0.00028899, "MEAN_MOTION_DOT": 6.21e-06, "MEAN_MOTION_DDOT": 0}, "tle": {"line1": "1 33651U 99025DEL 25338.39890240  .00000621  00000+0  28899-3 0  9996", "line2": "2 33651  98.6575  24.1579 0118053  77.9387 283.4991 14.20347140641538"}}, "geometry": {"type": "Point", "coordinates": [-128.42785901552062, 68.9531482893753]}}]}